ONEWEB-0180             
1 48213U 21031D   21261.58334491 -.00020797  00000-0 -56227-1 0  9994
2 48213  87.9034 274.0900 0002123  93.8648   7.3855 13.14541145  3289
ONEWEB-0218             
1 48214U 21031E   21261.83334491  .00022639  00000-0  61222-1 0  9999
2 48214  87.8985 274.0396 0001820 113.2322 353.9592 13.14118510 20780
ONEWEB-0209             
1 48215U 21031F   21261.91667824  .00050349  00000-0  13701+0 0  9994
2 48215  87.9012 274.0138 0002350 105.9187 119.6118 13.13507624 20804
ONEWEB-0198             
1 48216U 21031G   21261.91667824  .00000013  00000-0  00000+0 0  9996
2 48216  87.9043 273.9549 0000961 101.0644 166.7899 13.15441377 20896
ONEWEB-0189             
1 48217U 21031H   21261.83334491  .00023156  00000-0  62279-1 0  9990
2 48217  87.8956 274.0440 0002118 116.1019  47.7395 13.14489109 20646
ONEWEB-0196             
1 48218U 21031J   21261.83334491  .00019319  00000-0  52702-1 0  9997
2 48218  87.9011 273.9902 0001572  89.7570 198.7777 13.13540996 20632
ONEWEB-0183             
1 48219U 21031K   21261.58334491 -.00020434  00000-0 -55093-1 0  9998
2 48219  87.9042 274.0432 0001953 104.2286 187.1249 13.14726414  3287
ONEWEB-0185             
1 48220U 21031L   21261.83334491  .00020379  00000-0  54827-1 0  9998
2 48220  87.8977 274.0376 0002355  92.7903 161.1058 13.14485818 20656
ONEWEB-0187             
1 48221U 21031M   21261.83334491  .00019462  00000-0  52363-1 0  9993
2 48221  87.8975 274.0409 0002194  95.8006 278.0690 13.14484174 20677
ONEWEB-0192             
1 48222U 21031N   21261.83334491  .00023245  00000-0  62528-1 0  9992
2 48222  87.8963 274.0208 0001771 105.1187  38.7427 13.14479305 20597
ONEWEB-0219             
1 48223U 21031P   21261.91667824  .00048271  00000-0  12953+0 0  9992
2 48223  87.8984 274.0008 0001967  98.8752 169.1144 13.14479165 20805
ONEWEB-0202             
1 48224U 21031Q   21261.91667824  .00045211  00000-0  12120+0 0  9990
2 48224  87.8971 274.0341 0002678 137.8045 224.8817 13.14566572 20794
ONEWEB-0204             
1 48225U 21031R   21261.91667824  .00047439  00000-0  12731+0 0  9993
2 48225  87.8933 274.0263 0001925  68.7917   9.0767 13.14478065 20684
ONEWEB-0205             
1 48226U 21031S   21261.91667824  .00045841  00000-0  12305+0 0  9996
2 48226  87.8983 274.0046 0000989 137.5450 180.6091 13.14474270 20708
ONEWEB-0206             
1 48227U 21031T   21261.91667824  .00000013  00000-0  00000+0 0  9998
2 48227  87.9110 274.0093 0003168  93.9913 340.6336 13.19669960 20656
ONEWEB-0182             
1 48228U 21031U   21261.91667824  .00048798  00000-0  13081+0 0  9994
2 48228  87.8972 274.0332 0002581 104.6617   1.0324 13.14544476 20864
ONEWEB-0186             
1 48229U 21031V   21261.91667824  .00046537  00000-0  12491+0 0  9998
2 48229  87.8959 274.0176 0002206 106.0957 311.8992 13.14473334 20815
ONEWEB-0181             
1 48230U 21031W   21261.91667824  .00051162  00000-0  13907+0 0  9993
2 48230  87.8961 273.9437 0001833  93.5526  90.8081 13.13576899 20660
ONEWEB-0188             
1 48231U 21031X   21261.58334491 -.00022666  00000-0 -61299-1 0  9996
2 48231  87.8979 274.1034 0002302  96.2015 105.1025 13.14530160  3279
ONEWEB-0220             
1 48232U 21031Y   21261.91667824  .00050888  00000-0  13653+0 0  9997
2 48232  87.8972 274.0014 0002440 104.5533  53.3849 13.14472092 20839
ONEWEB-0165             
1 48233U 21031Z   21261.91667824  .00045339  00000-0  12179+0 0  9995
2 48233  87.9005 274.0288 0002067 103.3364 274.7652 13.14428884 20780
ONEWEB-0199             
1 48234U 21031AA  21261.91667824  .00048570  00000-0  13022+0 0  9994
2 48234  87.8993 274.0381 0001990 108.7180 352.4525 13.14536656 20699
ONEWEB-0203             
1 48235U 21031AB  21261.91667824  .00050579  00000-0  13571+0 0  9996
2 48235  87.9012 273.9183 0001262 102.8370  45.1909 13.14470362 20704
ONEWEB-0197             
1 48236U 21031AC  21261.58334491 -.00019784  00000-0 -53539-1 0  9996
2 48236  87.8971 274.0957 0002219  97.3827 333.7848 13.14471054  3288
ONEWEB-0194             
1 48237U 21031AD  21261.91667824  .00045169  00000-0  12125+0 0  9991
2 48237  87.8989 274.0255 0001284  85.9269 271.9255 13.14476002 20780
ONEWEB-0193             
1 48238U 21031AE  21261.83334491  .00014802  00000-0  39833-1 0  9991
2 48238  87.8971 274.0452 0001735 102.9687 140.9068 13.14493302 20718
ONEWEB-0191             
1 48239U 21031AF  21261.91667824  .00050292  00000-0  13492+0 0  9994
2 48239  87.8992 274.0409 0001620  96.8531 130.9951 13.14481375 20588
ONEWEB-0195             
1 48240U 21031AG  21261.91667824  .00045583  00000-0  12235+0 0  9997
2 48240  87.8971 274.0205 0002299 114.3217 213.5763 13.14480193 20576
ONEWEB-0201             
1 48241U 21031AH  21261.91667824  .00045218  00000-0  12138+0 0  9995
2 48241  87.8986 274.0277 0001954  91.4425 256.6369 13.14477597 20805
ONEWEB-0207             
1 48242U 21031AJ  21261.91667824  .00048910  00000-0  13125+0 0  9995
2 48242  87.8993 274.0283 0002285  86.3781  21.5807 13.14471915 20722
ONEWEB-0208             
1 48243U 21031AK  21261.91667824  .00050679  00000-0  13593+0 0  9990
2 48243  87.8970 274.0233 0001943 111.7040 106.0183 13.14492932 20722
ONEWEB-0200             
1 48244U 21031AL  21261.91667824  .00045572  00000-0  12239+0 0  9993
2 48244  87.8960 274.0044 0001930 112.6811 276.2846 13.14440781 20668
ONEWEB-0217             
1 48245U 21031AM  21261.91667824  .00046226  00000-0  12411+0 0  9993
2 48245  87.9010 274.0183 0002218 113.9260 194.7424 13.14455562 20616
PLEIADES NEO 3          
1 48268U 21034A   21261.84274428  .00000162  00000-0  27135-4 0  9990
2 48268  97.8933 335.4667 0001425  90.5511 269.5865 14.81682162 21133
LEMUR-2-AMANDA-SVANTE   
1 48269U 21034B   21261.24053586  .00000969  00000-0  11713-3 0  9994
2 48269  97.7800 333.8353 0002375 232.5469 127.5530 14.85955268 21096
AII-BRAVO               
1 48270U 21034C   21261.52122145  .00000306  00000-0  41299-4 0  9993
2 48270  97.7796 334.0769 0002705 226.7333 133.3657 14.85759568 21144
TYVAK-182A              
1 48271U 21034D   21261.48253527  .00000414  00000-0  53219-4 0  9993
2 48271  97.7797 334.1306 0000826 329.9647  30.1521 14.86174639 21134
NORSAT 3                
1 48272U 21034E   21261.84761604  .00000451  00000-0  56873-4 0  9994
2 48272  97.7792 334.5713 0001964  56.7071 303.4327 14.86573340 21206
LEMUR-2-SPECIAL-K       
1 48273U 21034F   21261.77972309  .00000588  00000-0  73461-4 0  9996
2 48273  97.7799 334.3593 0002428 224.1695 135.9327 14.85919729 21186
TIANHE                  
1 48274U 21035A   21261.62535688  .00041265  00000-0  46708-3 0  9997
2 48274  41.4704  73.0000 0004226 275.5499 169.8424 15.61637078 22318
STARLINK-2567           
1 48276U 21036A   21261.58334491 -.01097597  00000-0 -15840-1 0  9997
2 48276  53.0493 181.7833 0001104  84.9083 218.0527 15.58036773  3702
STARLINK-2569           
1 48277U 21036B   21261.91667824 -.00077091  00000-0 -54705-3 0  9995
2 48277  53.0503 179.7145 0003800   5.7648 202.0308 15.73304086 23233
STARLINK-2543           
1 48278U 21036C   21261.58334491 -.00006298  00000-0 -40309-4 0  9997
2 48278  53.0498 181.3673 0003675   2.5206 116.9105 15.73269688  3668
STARLINK-2580           
1 48279U 21036D   21261.58334491  .00082242  00000-0  58380-3 0  9996
2 48279  53.0496 181.3655 0003547  10.8895 109.1989 15.73225632  3712
STARLINK-2565           
1 48280U 21036E   21261.30399341  .00000727  00000-0  67722-4 0  9992
2 48280  53.0544 229.1577 0001389  49.5702 310.5408 15.06392329 21910
STARLINK-2520           
1 48281U 21036F   21261.83334491  .00071713  00000-0  47884-2 0  9994
2 48281  53.0535 206.7803 0001829  72.6295 209.6579 15.06370115 22857
STARLINK-2558           
1 48282U 21036G   21261.83334491  .00026771  00000-0  18096-2 0  9992
2 48282  53.0600 211.7649 0001807  70.3809  84.4793 15.06393617 22788
STARLINK-2516           
1 48283U 21036H   21261.58334491 -.00022816  00000-0 -15177-2 0  9990
2 48283  53.0647 212.8759 0001871  69.5910 188.8101 15.06400328  3563
STARLINK-2564           
1 48284U 21036J   21261.58334491 -.00024040  00000-0 -16001-2 0  9999
2 48284  53.0480 212.9371 0001969  56.5259 221.8384 15.06406286  3593
STARLINK-2548           
1 48285U 21036K   21261.58334491 -.00024153  00000-0 -16084-2 0  9996
2 48285  53.0446 212.9489 0001748  72.9258 225.5186 15.06392280  3603
STARLINK-2547           
1 48286U 21036L   21261.58334491 -.00023838  00000-0 -15864-2 0  9991
2 48286  53.0515 212.9080 0001786  60.9317 257.4593 15.06407928  3605
STARLINK-2566           
1 48287U 21036M   21261.58334491 -.00023537  00000-0 -15663-2 0  9995
2 48287  53.0525 212.9056 0001792  66.2294 272.1557 15.06402831  3590
STARLINK-2562           
1 48288U 21036N   21261.83334491  .00027518  00000-0  18603-2 0  9992
2 48288  53.0535 211.7821 0001759  79.8078 195.1248 15.06375624 22784
STARLINK-2545           
1 48289U 21036P   21261.58334491 -.00022474  00000-0 -14947-2 0  9990
2 48289  53.0522 212.9095 0001924  65.9129 312.4832 15.06397458  3617
STARLINK-2540           
1 48290U 21036Q   21261.83334491  .00030167  00000-0  20360-2 0  9992
2 48290  53.0529 211.8045 0001710  73.7057 241.2095 15.06389879 22786
STARLINK-2555           
1 48291U 21036R   21261.58334491 -.00021588  00000-0 -14344-2 0  9999
2 48291  53.0531 212.9173 0001981  66.7778 351.6035 15.06407598  3616
STARLINK-2542           
1 48292U 21036S   21261.58334491 -.00020392  00000-0 -13535-2 0  9993
2 48292  53.0534 212.9126 0001689  62.8050  20.7311 15.06412562 22746
STARLINK-2550           
1 48293U 21036T   21261.58334491 -.00021260  00000-0 -14120-2 0  9990
2 48293  53.0534 212.9107 0001923  61.5649  36.8475 15.06414681  3615
STARLINK-2533           
1 48294U 21036U   21261.83334491  .00032151  00000-0  21685-2 0  9992
2 48294  53.0558 211.7948 0001842  76.8458 318.0627 15.06382116 22789
